STARLINK-30875          
1 58224U 23170U   26068.37231528  .00000142  00000+0  14947-4 0  9992
2 58224  42.9974 195.7665 0000354 217.8694 142.2133 15.26737349130250
FLOCK 4G-1              
1 62666U 25009BK  26068.75951132  .00013534  00000+0  50654-3 0  9995
2 62666  97.4059 151.3158 0003180 323.1401  36.9619 15.27421081 63725
